{
  "type": "FeatureCollection",
  "features": [
    {
      "type": "Feature",
      "properties": {
        "norad_id": 66935,
        "name": "STARLINK-36127",
        "group": "last-30-days",
        "lat": 9.643412011469657,
        "lon": 52.70397945857366,
        "alt_km": 285.8006651539108,
        "timestamp": "2025-12-13T18:50:03.175563+00:00",
        "meta_object_name": "STARLINK-36127",
        "meta_object_id": "2025-286L",
        "meta_epoch": "2025-12-13T06:00:02.000160",
        "meta_mean_motion": 15.96985083,
        "meta_eccentricity": 8.617e-05,
        "meta_inclination": 53.1573,
        "meta_ra_of_asc_node": 48.1267,
        "meta_arg_of_pericenter": 81.7353,
        "meta_mean_anomaly": 95.6175,
        "meta_ephemeris_type": 0,
        "meta_classification_type": "U",
        "meta_norad_cat_id": 66935,
        "meta_element_set_no": 999,
        "meta_rev_at_epoch": 207,
        "meta_bstar": -0.0028067139,
        "meta_mean_motion_dot": -0.01243177,
        "meta_mean_motion_ddot": 0.00047755164,
        "tle_line1": "1 66935U 25286L   25347.25002315 -.01243177  47755-3 -28067-2 0  9994",
        "tle_line2": "2 66935  53.1573  48.1267 0000861  81.7353  95.6175 15.96985083  2071"
      },
      "geometry": {
        "type": "Point",
        "coordinates": [
          52.70397945857366,
          9.643412011469657
        ]
      }
    },
    {
      "type": "Feature",
      "properties": {
        "norad_id": 66936,
        "name": "STARLINK-36160",
        "group": "last-30-days",
        "lat": 10.743682052081274,
        "lon": 53.560834482368875,
        "alt_km": 285.45609378216886,
        "timestamp": "2025-12-13T18:50:03.175576+00:00",
        "meta_object_name": "STARLINK-36160",
        "meta_object_id": "2025-286M",
        "meta_epoch": "2025-12-13T06:00:02.000160",
        "meta_mean_motion": 15.97064683,
        "meta_eccentricity": 8.62e-05,
        "meta_inclination": 53.1573,
        "meta_ra_of_asc_node": 48.1243,
        "meta_arg_of_pericenter": 86.0793,
        "meta_mean_anomaly": 92.513,
        "meta_ephemeris_type": 0,
        "meta_classification_type": "U",
        "meta_norad_cat_id": 66936,
        "meta_element_set_no": 999,
        "meta_rev_at_epoch": 207,
        "meta_bstar": -0.0028073847,
        "meta_mean_motion_dot": -0.01248871,
        "meta_mean_motion_ddot": 0.00048193661,
        "tle_line1": "1 66936U 25286M   25347.25002315 -.01248871  48194-3 -28074-2 0  9997",
        "tle_line2": "2 66936  53.1573  48.1243 0000862  86.0793  92.5130 15.97064683  2075"
      },
      "geometry": {
        "type": "Point",
        "coordinates": [
          53.560834482368875,
          10.743682052081274
        ]
      }
    },
    {
      "type": "Feature",
      "properties": {
        "norad_id": 66937,
        "name": "STARLINK-36165",
        "group": "last-30-days",
        "lat": 11.865037350874113,
        "lon": 54.4421028288001,
        "alt_km": 284.9193007756039,
        "timestamp": "2025-12-13T18:50:03.175586+00:00",
        "meta_object_name": "STARLINK-36165",
        "meta_object_id": "2025-286N",
        "meta_epoch": "2025-12-13T06:00:02.000160",
        "meta_mean_motion": 15.97138037,
        "meta_eccentricity": 0.000102,
        "meta_inclination": 53.1572,
        "meta_ra_of_asc_node": 48.1214,
        "meta_arg_of_pericenter": 74.5439,
        "meta_mean_anomaly": 105.3215,
        "meta_ephemeris_type": 0,
        "meta_classification_type": "U",
        "meta_norad_cat_id": 66937,
        "meta_element_set_no": 999,
        "meta_rev_at_epoch": 207,
        "meta_bstar": -0.0027883668,
        "meta_mean_motion_dot": -0.01245501,
        "meta_mean_motion_ddot": 0.00047993794,
        "tle_line1": "1 66937U 25286N   25347.25002315 -.01245501  47994-3 -27884-2 0  9990",
        "tle_line2": "2 66937  53.1572  48.1214 0001020  74.5439 105.3215 15.97138037  2071"
      },
      "geometry": {
        "type": "Point",
        "coordinates": [
          54.4421028288001,
          11.865037350874113
        ]
      }
    },
    {
      "type": "Feature",
      "properties": {
        "norad_id": 66938,
        "name": "STARLINK-36155",
        "group": "last-30-days",
        "lat": 12.994374287912445,
        "lon": 55.33941375367809,
        "alt_km": 284.67698817173095,
        "timestamp": "2025-12-13T18:50:03.175597+00:00",
        "meta_object_name": "STARLINK-36155",
        "meta_object_id": "2025-286P",
        "meta_epoch": "2025-12-13T06:00:02.000160",
        "meta_mean_motion": 15.97215745,
        "meta_eccentricity": 8.505e-05,
        "meta_inclination": 53.157,
        "meta_ra_of_asc_node": 48.1186,
        "meta_arg_of_pericenter": 87.4801,
        "meta_mean_anomaly": 93.6647,
        "meta_ephemeris_type": 0,
        "meta_classification_type": "U",
        "meta_norad_cat_id": 66938,
        "meta_element_set_no": 999,
        "meta_rev_at_epoch": 207,
        "meta_bstar": -0.0027768022,
        "meta_mean_motion_dot": -0.01245644,
        "meta_mean_motion_ddot": 0.00048042439,
        "tle_line1": "1 66938U 25286P   25347.25002315 -.01245644  48042-3 -27768-2 0  9995",
        "tle_line2": "2 66938  53.1570  48.1186 0000850  87.4801  93.6647 15.97215745  2074"
      },
      "geometry": {
        "type": "Point",
        "coordinates": [
          55.33941375367809,
          12.994374287912445
        ]
      }
    },
    {
      "type": "Feature",
      "properties": {
        "norad_id": 66939,
        "name": "STARLINK-36154",
        "group": "last-30-days",
        "lat": 15.429094577094546,
        "lon": 57.312274099158316,
        "alt_km": 283.71268630869326,
        "timestamp": "2025-12-13T18:50:03.175609+00:00",
        "meta_object_name": "STARLINK-36154",
        "meta_object_id": "2025-286Q",
        "meta_epoch": "2025-12-13T06:00:02.000160",
        "meta_mean_motion": 15.97396944,
        "meta_eccentricity": 9.517e-05,
        "meta_inclination": 53.1569,
        "meta_ra_of_asc_node": 48.1129,
        "meta_arg_of_pericenter": 78.1599,
        "meta_mean_anomaly": 105.7509,
        "meta_ephemeris_type": 0,
        "meta_classification_type": "U",
        "meta_norad_cat_id": 66939,
        "meta_element_set_no": 999,
        "meta_rev_at_epoch": 207,
        "meta_bstar": -0.0027877017,
        "meta_mean_motion_dot": -0.01262928,
        "meta_mean_motion_ddot": 0.00049355383,
        "tle_line1": "1 66939U 25286Q   25347.25002315 -.01262928  49355-3 -27877-2 0  9999",
        "tle_line2": "2 66939  53.1569  48.1129 0000951  78.1599 105.7509 15.97396944  2076"
      },
      "geometry": {
        "type": "Point",
        "coordinates": [
          57.312274099158316,
          15.429094577094546
        ]
      }
    },
    {
      "type": "Feature",
      "properties": {
        "norad_id": 66940,
        "name": "STARLINK-36121",
        "group": "last-30-days",
        "lat": 16.500349552045183,
        "lon": 58.19897431394043,
        "alt_km": 283.3372813257738,
        "timestamp": "2025-12-13T18:50:03.175619+00:00",
        "meta_object_name": "STARLINK-36121",
        "meta_object_id": "2025-286R",
        "meta_epoch": "2025-12-13T06:00:02.000160",
        "meta_mean_motion": 15.97468585,
        "meta_eccentricity": 9.178e-05,
        "meta_inclination": 53.1568,
        "meta_ra_of_asc_node": 48.1101,
        "meta_arg_of_pericenter": 78.1817,
        "meta_mean_anomaly": 106.9573,
        "meta_ephemeris_type": 0,
        "meta_classification_type": "U",
        "meta_norad_cat_id": 66940,
        "meta_element_set_no": 999,
        "meta_rev_at_epoch": 207,
        "meta_bstar": -0.002769667,
        "meta_mean_motion_dot": -0.01259779,
        "meta_mean_motion_ddot": 0.0004916828,
        "tle_line1": "1 66940U 25286R   25347.25002315 -.01259779  49168-3 -27697-2 0  9993",
        "tle_line2": "2 66940  53.1568  48.1101 0000917  78.1817 106.9573 15.97468585  2077"
      },
      "geometry": {
        "type": "Point",
        "coordinates": [
          58.19897431394043,
          16.500349552045183
        ]
      }
    },
    {
      "type": "Feature",
      "properties": {
        "norad_id": 66941,
        "name": "STARLINK-36088",
        "group": "last-30-days",
        "lat": 14.297443957534362,
        "lon": 56.38822141101039,
        "alt_km": 284.1147028485293,
        "timestamp": "2025-12-13T18:50:03.175630+00:00",
        "meta_object_name": "STARLINK-36088",
        "meta_object_id": "2025-286S",
        "meta_epoch": "2025-12-13T06:00:02.000160",
        "meta_mean_motion": 15.97323075,
        "meta_eccentricity": 9.642e-05,
        "meta_inclination": 53.1568,
        "meta_ra_of_asc_node": 48.1154,
        "meta_arg_of_pericenter": 77.4678,
        "meta_mean_anomaly": 105.1499,
        "meta_ephemeris_type": 0,
        "meta_classification_type": "U",
        "meta_norad_cat_id": 66941,
        "meta_element_set_no": 999,
        "meta_rev_at_epoch": 207,
        "meta_bstar": -0.002813975,
        "meta_mean_motion_dot": -0.01269552,
        "meta_mean_motion_ddot": 0.00049789423,
        "tle_line1": "1 66941U 25286S   25347.25002315 -.01269552  49789-3 -28140-2 0  9997",
        "tle_line2": "2 66941  53.1568  48.1154 0000964  77.4678 105.1499 15.97323075  2077"
      },
      "geometry": {
        "type": "Point",
        "coordinates": [
          56.38822141101039,
          14.297443957534362
        ]
      }
    }
  ]
}